[{"OBJECT_NAME":"CUPID","OBJECT_ID":"2021-088E","EPOCH":"2026-03-09T16:04:42.796128","MEAN_MOTION":15.24473777,"ECCENTRICITY":0.0013746,"INCLINATION":97.3985,"RA_OF_ASC_NODE":131.0756,"ARG_OF_PERICENTER":59.9938,"MEAN_ANOMALY":300.2662,"EPHEMERIS_TYPE":0,"CLASSIFICATION_TYPE":"U","NORAD_CAT_ID":49264,"ELEMENT_SET_NO":999,"REV_AT_EPOCH":24501,"BSTAR":0.00038662302,"MEAN_MOTION_DOT":9.454e-5,"MEAN_MOTION_DDOT":0},{"OBJECT_NAME":"STARLINK-31914","OBJECT_ID":"2024-100T","EPOCH":"2026-03-09T03:55:06.534912","MEAN_MOTION":15.27567526,"ECCENTRICITY":0.00012952,"INCLINATION":43.0032,"RA_OF_ASC_NODE":128.6013,"ARG_OF_PERICENTER":251.5976,"MEAN_ANOMALY":108.4735,"EPHEMERIS_TYPE":0,"CLASSIFICATION_TYPE":"U","NORAD_CAT_ID":59902,"ELEMENT_SET_NO":999,"REV_AT_EPOCH":10096,"BSTAR":-4.5257914e-5,"MEAN_MOTION_DOT":-1.507e-5,"MEAN_MOTION_DDOT":0}]
