CUPID                   
1 49264U 21088E   26068.66993977  .00009454  00000+0  38662-3 0  9991
2 49264  97.3985 131.0756 0013746  59.9938 300.2662 15.24473777245013
STARLINK-31914          
1 59902U 24100T   26068.16327008 -.00001507  00000+0 -45258-4 0  9993
2 59902  43.0032 128.6013 0001295 251.5976 108.4735 15.27567526100962
